COSMOS 2361             
1 25590U 98076A   09118.60131812  .00000055  00000-0  43416-4 0   210
2 25590  82.9331 151.7090 0030224 219.9645 139.9292 13.72702120518227
COSMOS 2378             
1 26818U 01023A   09118.68396177  .00000048  00000-0  35324-4 0   148
2 26818  82.9296 178.6286 0032492 185.9821 174.0953 13.73733811395536
COSMOS 2389             
1 27436U 02026A   09118.84299009  .00000033  00000-0  18153-4 0  7426
2 27436  82.9461 119.1268 0048208  78.9936 281.6637 13.74732273347192
COSMOS 2398             
1 27818U 03023A   09118.05199029  .00000012  00000-0 -35463-5 0  6029
2 27818  82.9457  65.7655 0032912  54.6117 305.8102 13.71953655295378
COSMOS 2407             
1 28380U 04028A   09117.68030398  .00000023  00000-0  72661-5 0  4199
2 28380  82.9619  28.2021 0040638 111.0058 249.5458 13.75841456239241
COSMOS 2414             
1 28521U 05002A   09118.76709989 -.00000018  00000-0 -28921-4 0  3327
2 28521  82.9448  94.4645 0040642 163.7634 196.4843 13.87344681216248
COSMOS 2429             
1 32052U 07038A   09118.54926292  .00000119  00000-0  10882-3 0  5155
2 32052  82.9782 136.5180 0040096  67.7303 292.8093 13.74692011 81746
